OBJECT_NAME,OBJECT_ID,EPOCH,MEAN_MOTION,ECCENTRICITY,INCLINATION,RA_OF_ASC_NODE,ARG_OF_PERICENTER,MEAN_ANOMALY,EPHEMERIS_TYPE,CLASSIFICATION_TYPE,NORAD_CAT_ID,ELEMENT_SET_NO,REV_AT_EPOCH,BSTAR,MEAN_MOTION_DOT,MEAN_MOTION_DDOT
ISS (ZARYA),1998-067A,2020-09-16T12:16:53.027904,15.48949986,.0000966,51.6436,256.5425,103.3229,39.4007,0,U,25544,999,24617,.12392E-4,.234E-5,0
ISS (ZARYA),1998-067A,2020-09-16T19:40:29.375616,15.48950273,.0000901,51.6438,255.0203,97.4874,324.1751,0,U,25544,999,24622,.11751E-4,.199E-5,0
ISS (ZARYA),1998-067A,2020-09-16T19:40:29.375616,15.48950273,.0000901,51.6438,255.0203,97.4879,324.1746,0,U,25544,999,24622,.11751E-4,.199E-5,0
ISS (ZARYA),1998-067A,2020-09-17T05:05:42.673344,15.48949540,.0000901,51.6438,253.0781,98.9321,352.9218,0,U,25544,999,24628,.75602E-5,-.32E-6,0
ISS (ZARYA),1998-067A,2020-09-17T08:13:03.796320,15.48950110,.000087,51.6434,252.4346,99.8315,358.0000,0,U,25544,999,24630,.90498E-5,.5E-6,0
ISS (ZARYA),1998-067A,2020-09-17T11:29:11.985216,15.48950246,.000087,51.6434,251.7606,100.3329,37.5142,0,U,25544,999,24632,.90498E-5,.5E-6,0
ISS (ZARYA),1998-067A,2020-09-17T20:29:12.779232,15.48950860,.0000854,51.6432,249.9052,101.7039,328.6599,0,U,25544,999,24638,.9359E-5,.67E-6,0
ISS (ZARYA),1998-067A,2020-09-18T04:18:00.351936,15.48951196,.0000854,51.6432,248.2943,102.9022,344.0032,0,U,25544,999,24643,.9359E-5,.67E-6,0
ISS (ZARYA),1998-067A,2020-09-18T07:25:30.387936,15.48951757,.0000871,51.6431,247.6507,104.8421,348.6175,0,U,25544,999,24645,.10734E-4,.143E-5,0
ISS (ZARYA),1998-067A,2020-09-18T10:40:59.779776,15.48952352,.0000876,51.6432,246.9792,103.2929,27.6791,0,U,25544,999,24647,.12074E-4,.217E-5,0
ISS (ZARYA),1998-067A,2020-09-18T16:13:57.999936,15.48952759,.0000884,51.6432,245.8351,104.2674,236.9442,0,U,25544,999,24650,.12514E-4,.241E-5,0
ISS (ZARYA),1998-067A,2020-09-18T19:43:29.445312,15.48953400,.0000884,51.6432,245.1151,104.8030,328.3036,0,U,25544,999,24653,.14056E-4,.326E-5,0
ISS (ZARYA),1998-067A,2020-09-19T03:29:04.657920,15.48953544,.0000884,51.6432,243.5152,105.9931,331.2332,0,U,25544,999,24658,.13129E-4,.275E-5,0
ISS (ZARYA),1998-067A,2020-09-19T05:05:44.023776,15.48953795,.0000884,51.6432,243.1831,106.2401,345.5232,0,U,25544,999,24659,.1377E-4,.31E-5,0
ISS (ZARYA),1998-067A,2020-09-19T08:24:55.200960,15.48954403,.0000884,51.6432,242.4987,106.7493,36.8506,0,U,25544,999,24661,.1525E-4,.391E-5,0
ISS (ZARYA),1998-067A,2020-09-19T12:53:04.153632,15.48954979,.0000921,51.6431,241.5796,101.8161,0.8451,0,U,25544,999,24664,.16254E-4,.447E-5,0
ISS (ZARYA),1998-067A,2020-09-19T17:03:08.999712,15.48955290,.0000921,51.6431,240.7202,102.4553,249.2549,0,U,25544,999,24666,.16254E-4,.447E-5,0
ISS (ZARYA),1998-067A,2020-09-19T20:33:04.311360,15.48956126,.0000921,51.6431,239.9989,102.9919,342.1564,0,U,25544,999,24669,.18324E-4,.561E-5,0
ISS (ZARYA),1998-067A,2020-09-20T02:42:27.500256,15.48952844,.0000994,51.6437,238.7325,97.1648,339.3235,0,U,25544,999,24673,-.22065E-5,-.569E-5,0
ISS (ZARYA),1998-067A,2020-09-20T04:44:01.000320,15.48953112,.0000886,51.6434,238.3137,96.9820,90.5374,0,U,25544,999,24674,.22468E-5,-.324E-5,0
ISS (ZARYA),1998-067A,2020-09-20T09:14:52.396224,15.48952627,.0000886,51.6434,237.3830,97.6743,59.3980,0,U,25544,999,24677,-.10737E-5,-.506E-5,0
ISS (ZARYA),1998-067A,2020-09-20T10:44:06.515232,15.48952417,.0000886,51.6434,237.0763,97.9024,44.9506,0,U,25544,999,24678,-.19192E-5,-.553E-5,0
ISS (ZARYA),1998-067A,2020-09-20T16:14:17.000160,15.48947212,.0000971,51.6440,235.9435,92.9492,249.3000,0,U,25544,999,24681,-.48438E-4,-.3109E-4,0
ISS (ZARYA),1998-067A,2020-09-20T21:09:20.017152,15.48953348,.0000971,51.6440,234.9297,93.7033,311.8593,0,U,25544,999,24685,.21113E-5,-.331E-5,0
ISS (ZARYA),1998-067A,2020-09-21T05:07:38.006112,15.48953094,.0000845,51.6436,233.2851,99.0960,359.8481,0,U,25544,999,24690,.13058E-5,-.375E-5,0
ISS (ZARYA),1998-067A,2020-09-21T08:27:14.539104,15.48953064,.0000845,51.6436,232.5992,99.6062,52.8115,0,U,25544,999,24692,.62519E-6,-.413E-5,0
ISS (ZARYA),1998-067A,2020-09-21T09:56:34.185984,15.48953495,.0000846,51.6438,232.2932,99.3550,39.2011,0,U,25544,999,24693,.23427E-5,-.318E-5,0
ISS (ZARYA),1998-067A,2020-09-21T12:54:33.054912,15.48953152,.0000846,51.6438,231.6817,99.8099,8.4119,0,U,25544,999,24695,.80975E-6,-.403E-5,0
ISS (ZARYA),1998-067A,2020-09-21T17:21:34.122240,15.48958137,.0000658,51.6448,230.7691,70.9451,351.9517,0,U,25544,999,24698,.79957E-4,.3953E-4,0
ISS (ZARYA),1998-067A,2020-09-21T20:33:28.117152,15.48953221,.0000814,51.6436,230.1047,97.9524,348.5484,0,U,25544,999,24700,.66553E-6,-.411E-5,0
ISS (ZARYA),1998-067A,2020-09-22T05:52:36.160608,15.48953212,.0000814,51.6436,228.1834,99.3815,353.7290,0,U,25544,999,24706,.85307E-6,-.4E-5,0
