1 25544U 98067A   20260.51172486  .00000234  00000-0  12392-4 0  9994
2 25544  51.6436 256.5425 0000966 103.3229  39.4007 15.48949986246173
1 25544U 98067A   20260.81978444  .00000199  00000-0  11751-4 0  9993
2 25544  51.6438 255.0203 0000901  97.4879 324.1746 15.48950273246227
1 25544U 98067A   20260.81978444  .00000199  00000-0  11751-4 0  9993
2 25544  51.6438 255.0203 0000901  97.4874 324.1751 15.48950273246228
1 25544U 98067A   20261.21229946 -.00000032  00000-0  75602-5 0  9997
2 25544  51.6438 253.0781 0000901  98.9321 352.9218 15.48949540246288
1 25544U 98067A   20261.34240505  .00000050  00000-0  90498-5 0  9994
2 25544  51.6434 252.4346 0000870  99.8315 358.0000 15.48950110246306
1 25544U 98067A   20261.47861094 +.00000050 +00000-0 +90498-5 0  9990
2 25544 051.6434 251.7606 0000870 100.3329 037.5142 15.48950246246328
1 25544U 98067A   20261.85362013  .00000067  00000-0  93590-5 0  9993
2 25544  51.6432 249.9052 0000854 101.7039 328.6599 15.48950860246383
1 25544U 98067A   20262.17917074  .00000067  00000-0  93590-5 0  9992
2 25544  51.6432 248.2943 0000854 102.9022 344.0032 15.48951196246432
1 25544U 98067A   20262.30937949  .00000143  00000-0  10734-4 0  9993
2 25544  51.6431 247.6507 0000871 104.8421 348.6175 15.48951757246456
1 25544U 98067A   20262.44513634 +.00000217 +00000-0 +12074-4 0  9990
2 25544 051.6432 246.9792 0000876 103.2929 027.6791 15.48952352246478
1 25544U 98067A   20262.67636574  .00000241  00000-0  12514-4 0  9990
2 25544  51.6432 245.8351 0000884 104.2674 236.9442 15.48952759246507
1 25544U 98067A   20262.82186858  .00000326  00000-0  14056-4 0  9999
2 25544  51.6432 245.1151 0000884 104.8030 328.3036 15.48953400246532
1 25544U 98067A   20263.14519280  .00000275  00000-0  13129-4 0  9997
2 25544  51.6432 243.5152 0000884 105.9931 331.2332 15.48953544246583
1 25544U 98067A   20263.21231509  .00000310  00000-0  13770-4 0  9992
2 25544  51.6432 243.1831 0000884 106.2401 345.5232 15.48953795246595
1 25544U 98067A   20263.35063890  .00000391  00000-0  15250-4 0  9997
2 25544  51.6432 242.4987 0000884 106.7493  36.8506 15.48954403246619
1 25544U 98067A   20263.53685363  .00000447  00000-0  16254-4 0  9999
2 25544  51.6431 241.5796 0000921 101.8161   0.8451 15.48954979246647
1 25544U 98067A   20263.71052083  .00000447  00000-0  16254-4 0  9996
2 25544  51.6431 240.7202 0000921 102.4553 249.2549 15.48955290246668
1 25544U 98067A   20263.85629990  .00000561  00000-0  18324-4 0  9995
2 25544  51.6431 239.9989 0000921 102.9919 342.1564 15.48956126246693
1 25544U 98067A   20264.11281829 -.00000569  00000-0 -22065-5 0  9998
2 25544  51.6437 238.7325 0000994  97.1648 339.3235 15.48952844246735
1 25544U 98067A   20264.19723380 -.00000324  00000-0  22468-5 0  9994
2 25544  51.6434 238.3137 0000886  96.9820  90.5374 15.48953112246748
1 25544U 98067A   20264.38532866 -.00000506  00000-0 -10737-5 0  9991
2 25544  51.6434 237.3830 0000886  97.6743  59.3980 15.48952627246778
1 25544U 98067A   20264.44729763 -.00000553 +00000-0 -19192-5 0  9998
2 25544 051.6434 237.0763 0000886 097.9024 044.9506 15.48952417246787
1 25544U 98067A   20264.67658565 -.00003109  00000-0 -48438-4 0  9998
2 25544  51.6440 235.9435 0000971  92.9492 249.3000 15.48947212246817
1 25544U 98067A   20264.88148168 -.00000331  00000-0  21113-5 0  9999
2 25544  51.6440 234.9297 0000971  93.7033 311.8593 15.48953348246855
1 25544U 98067A   20265.21363433 -.00000375  00000-0  13058-5 0  9998
2 25544  51.6436 233.2851 0000845  99.0960 359.8481 15.48953094246908
1 25544U 98067A   20265.35225161 -.00000413  00000-0  62519-6 0  9998
2 25544  51.6436 232.5992 0000845  99.6062  52.8115 15.48953064246928
1 25544U 98067A   20265.41428456 -.00000318  00000-0  23427-5 0  9995
2 25544  51.6438 232.2932 0000846  99.3550  39.2011 15.48953495246934
1 25544U 98067A   20265.53788258 -.00000403  00000-0  80975-6 0  9994
2 25544  51.6438 231.6817 0000846  99.8099   8.4119 15.48953152246951
1 25544U 98067A   20265.72331160  .00003953  00000-0  79957-4 0  9999
2 25544  51.6448 230.7691 0000658  70.9451 351.9517 15.48958137246984
1 25544U 98067A   20265.85657543 -.00000411  00000-0  66553-6 0  9996
2 25544  51.6436 230.1047 0000814  97.9524 348.5484 15.48953221247002
1 25544U 98067A   20266.24486297 -.00000400  00000-0  85307-6 0  9992
2 25544  51.6436 228.1834 0000814  99.3815 353.7290 15.48953212247061
